OBJECT_NAME,OBJECT_ID,EPOCH,MEAN_MOTION,ECCENTRICITY,INCLINATION,RA_OF_ASC_NODE,ARG_OF_PERICENTER,MEAN_ANOMALY,EPHEMERIS_TYPE,CLASSIFICATION_TYPE,NORAD_CAT_ID,ELEMENT_SET_NO,REV_AT_EPOCH,BSTAR,MEAN_MOTION_DOT,MEAN_MOTION_DDOT
SL-8 R/B,1985-006B,2026-06-04T03:37:54.623424,14.37828831,.00184092,74.0449,102.0517,351.6250,108.2577,0,U,15483,999,16645,.11547183E-3,.322E-5,0
SL-12 R/B(2),1985-042D,2026-06-03T15:55:20.979264,14.22003233,.0035522,71.1086,266.0874,348.3603,110.8497,0,U,15772,999,12661,.70829E-4,.11E-5,0
SL-14 R/B,1985-069B,2026-06-03T21:48:10.826496,14.86504675,.00172302,82.5262,303.8553,266.4790,93.4456,0,U,15945,999,18564,.5161666E-4,.482E-5,0
SL-16 R/B,1985-097B,2026-06-03T15:24:28.798272,14.16611206,.0005902,71.0036,319.5954,138.0883,295.9848,0,U,16182,999,9940,.1171E-3,.186E-5,0
SL-14 R/B,1986-006B,2026-06-04T03:08:56.315904,14.86932225,.00759784,82.5264,178.3997,347.2925,12.6373,0,U,16496,999,16205,.69207819E-4,.678E-5,0
COSMOS 1743,1986-034A,2026-06-03T23:40:27.048288,15.65721268,.00035159,82.5276,342.7560,335.3214,24.7877,0,U,16719,999,19372,.45835709E-3,.46451E-3,0
SL-14 R/B,1986-046B,2026-06-04T02:04:51.538368,14.85662252,.00218076,82.4818,358.5557,304.6785,55.2376,0,U,16792,999,13923,.47585612E-4,.438E-5,0
SL-14 R/B,1986-055B,2026-06-04T02:09:43.924608,14.85713689,.00200766,82.5214,45.4459,49.4350,68.7499,0,U,16882,999,13219,.57205374E-4,.522E-5,0
AJISAI (EGS),1986-061A,2026-06-04T06:57:47.366784,12.44516730,.0011292,50.0065,187.0547,147.9081,298.3818,0,U,16908,999,47878,.44610139E-4,-.91E-6,0
SL-14 R/B,1987-024B,2026-06-04T02:07:48.134784,14.86204472,.00176082,82.5286,11.5634,339.3189,20.7312,0,U,17567,999,10096,.5020365E-4,.466E-5,0
COSMOS 1833,1987-027A,2026-06-04T01:59:25.922688,14.13040386,.00225021,70.9147,144.4136,76.9923,283.3708,0,U,17589,999,2252,.16110307E-3,.253E-5,0
SL-16 R/B,1987-027B,2026-06-04T02:05:57.300864,14.17169918,.00058411,71.0024,94.4324,327.9702,32.1066,0,U,17590,999,2758,.11697212E-3,.188E-5,0
SL-14 R/B,1987-038B,2026-06-04T03:04:25.962528,14.85437380,.00179231,82.5019,215.3725,236.2410,123.7099,0,U,17912,999,9206,.48577657E-4,.444E-5,0
COSMOS 1844,1987-041A,2026-06-03T14:25:07.817952,14.14570015,.00332892,70.8993,212.9645,254.9966,104.7470,0,U,17973,999,1573,.884839E-5,-.32E-6,0
SL-14 R/B,1987-055B,2026-06-03T06:45:41.878944,14.85700189,.00221821,82.4994,268.3368,90.7225,269.6533,0,U,18153,999,8264,.57772618E-4,.528E-5,0
COSMOS 1867,1987-060A,2026-06-04T01:39:41.173056,14.31514318,.00162029,65.0113,64.7957,281.9493,77.9775,0,U,18187,999,3230,.26315329E-4,-.3E-6,0
SL-14 R/B,1988-001B,2026-06-03T06:47:12.494400,14.85598562,.00169705,82.5122,114.8544,319.4199,40.5751,0,U,18749,999,5473,.57507607E-4,.522E-5,0
COSMOS 1933,1988-020A,2026-06-04T02:57:30.794976,15.18626787,.0002255,82.5113,165.3713,246.5845,113.5152,0,U,18958,999,6334,.18103315E-3,.3776E-4,0
SL-3 R/B,1988-032B,2026-06-04T05:10:00.402816,15.20737092,.0023795,97.5253,138.2706,293.8287,66.0454,0,U,19046,999,6525,.23112326E-3,.5052E-4,0
SL-16 R/B,1988-039B,2026-06-03T14:12:39.371040,14.19627836,.0023023,71.0152,246.9042,213.0564,146.9124,0,U,19120,999,97057,.4995942E-4,.58E-6,0
COSMOS 1953,1988-050A,2026-06-03T05:13:46.917696,15.29772927,.001083,82.5089,72.1173,170.8668,189.2771,0,U,19210,999,5085,.29172E-3,.8458E-4,0
SL-8 R/B,1988-053B,2026-06-03T14:08:33.906048,14.38961756,.00193388,74.0476,314.1234,114.4979,314.5681,0,U,19257,999,98895,.10792196E-3,.307E-5,0
COSMOS 1975,1988-093A,2026-06-04T01:37:14.736288,15.29148746,.00100283,82.5198,30.8972,219.1188,140.9328,0,U,19573,999,3260,.30212732E-3,.859E-4,0
SL-14 R/B,1988-093B,2026-06-04T01:52:16.548384,14.85731101,.00221038,82.5303,320.9536,110.8783,339.8809,0,U,19574,999,1384,.55138359E-4,.505E-5,0
SL-16 R/B,1988-102B,2026-06-03T15:43:43.321728,14.16165836,.00161915,71.0002,330.6123,243.3704,116.5761,0,U,19650,999,93906,.10081107E-3,.152E-5,0
INTERCOSMOS 24,1989-080A,2026-06-04T01:41:10.794048,12.59640417,.1188294,82.6077,48.1779,92.3150,281.4182,0,U,20261,999,67767,.29101678E-3,.102E-4,0
SL-14 R/B,1989-080C,2026-06-03T07:45:05.572224,12.50560014,.12295748,82.5912,118.2136,349.1174,8.5361,0,U,20262,999,67085,.16948173E-3,.57E-5,0
DELTA 1 R/B,1989-089B,2026-06-04T02:44:41.008128,14.50722446,.00681394,97.0639,348.7641,208.3686,151.3796,0,U,20323,999,90826,.11276986E-3,.421E-5,0
ARIANE 40 R/B,1990-005H,2026-06-04T02:52:34.293504,14.39920418,.00089939,98.2964,213.1415,309.2117,50.8272,0,U,20443,999,90524,.11664266E-3,.325E-5,0
DELTA 2 R/B(1),1990-008B,2026-06-03T21:09:49.591008,15.66729269,.0068452,35.6007,324.5326,348.4901,11.4272,0,U,20453,999,93961,.65995E-3,.82628E-3,0
